"CCSDS_OMM_VERS","COMMENT","CREATION_DATE","ORIGINATOR","OBJECT_NAME","OBJECT_ID","CENTER_NAME","REF_FRAME","TIME_SYSTEM","MEAN_ELEMENT_THEORY","EPOCH","MEAN_MOTION","ECCENTRICITY","INCLINATION","RA_OF_ASC_NODE","ARG_OF_PERICENTER","MEAN_ANOMALY","EPHEMERIS_TYPE","CLASSIFICATION_TYPE","NORAD_CAT_ID","ELEMENT_SET_NO","REV_AT_EPOCH","BSTAR","MEAN_MOTION_DOT","MEAN_MOTION_DDOT","SEMIMAJOR_AXIS","PERIOD","APOAPSIS","PERIAPSIS","OBJECT_TYPE","RCS_SIZE","COUNTRY_CODE","LAUNCH_DATE","SITE","DECAY_DATE","FILE","GP_ID","TLE_LINE0","TLE_LINE1","TLE_LINE2"
"2.0","GENERATED VIA SPACE-TRACK.ORG API","2023-03-06T22:16:13","18 SPCS","CARTOSAT 3","2019-081A","EARTH","TEME","UTC","SGP4","2023-03-06T18:40:39.155808","15.19355454","0.00113780","97.3615","126.4344","21.1122","107.3433","0","U","44804","999","18146","0.00037166000000","0.00007805","0.0000000000000","6885.924","94.777","515.624","499.955","PAYLOAD","LARGE","IND","2019-11-27","SRI",null,"3852876","227598582","0 CARTOSAT 3","1 44804U 19081A   23065.77823097  .00007805  00000-0  37166-3 0  9994","2 44804  97.3615 126.4344 0011378  21.1122 107.3433 15.19355454181469"
"2.0","GENERATED VIA SPACE-TRACK.ORG API","2023-03-07T03:16:41","18 SPCS","CARTOSAT 3","2019-081A","EARTH","TEME","UTC","SGP4","2023-03-06T22:02:00.670848","15.19358284","0.00114340","97.3616","126.5709","20.4920","152.3170","0","U","44804","999","18148","0.00037507000000","0.00007878","0.0000000000000","6885.916","94.777","515.654","499.907","PAYLOAD","LARGE","IND","2019-11-27","SRI",null,"3853141","227624049","0 CARTOSAT 3","1 44804U 19081A   23065.91806332  .00007878  00000-0  37507-3 0  9992","2 44804  97.3616 126.5709 0011434  20.4920 152.3170 15.19358284181481"
"2.0","GENERATED VIA SPACE-TRACK.ORG API","2023-03-07T06:16:19","18 SPCS","CARTOSAT 3","2019-081A","EARTH","TEME","UTC","SGP4","2023-03-07T02:06:57.057696","15.19361967","0.00114380","97.3615","126.7366","19.7148","2.8854","0","U","44804","999","18151","0.00037998000000","0.00007983","0.0000000000000","6885.905","94.777","515.646","499.894","PAYLOAD","LARGE","IND","2019-11-27","SRI",null,"3853153","227630961","0 CARTOSAT 3","1 44804U 19081A   23066.08816039  .00007983  00000-0  37998-3 0  9997","2 44804  97.3615 126.7366 0011438  19.7148   2.8854 15.19361967181512"
"2.0","GENERATED VIA SPACE-TRACK.ORG API","2023-03-07T14:16:13","18 SPCS","CARTOSAT 3","2019-081A","EARTH","TEME","UTC","SGP4","2023-03-07T08:36:24.164928","15.19368488","0.00114500","97.3613","127.0001","18.0157","42.9479","0","U","44804","999","18155","0.00039346000000","0.00008271","0.0000000000000","6885.885","94.776","515.634","499.866","PAYLOAD","LARGE","IND","2019-11-27","SRI",null,"3853575","227640432","0 CARTOSAT 3","1 44804U 19081A   23066.35861302  .00008271  00000-0  39346-3 0  9990","2 44804  97.3613 127.0001 0011450  18.0157  42.9479 15.19368488181553"
"2.0","GENERATED VIA SPACE-TRACK.ORG API","2023-03-07T22:16:12","18 SPCS","CARTOSAT 3","2019-081A","EARTH","TEME","UTC","SGP4","2023-03-07T18:18:18.715968","15.19378090","0.00112940","97.3614","127.3941","16.5852","93.3234","0","U","44804","999","18161","0.00041134000000","0.00008652","0.0000000000000","6885.856","94.776","515.498","499.944","PAYLOAD","LARGE","IND","2019-11-27","SRI",null,"3853822","227645932","0 CARTOSAT 3","1 44804U 19081A   23066.76271662  .00008652  00000-0  41134-3 0  9990","2 44804  97.3614 127.3941 0011294  16.5852  93.3234 15.19378090181617"
"2.0","GENERATED VIA SPACE-TRACK.ORG API","2023-03-08T02:32:52","18 SPCS","CARTOSAT 3","2019-081A","EARTH","TEME","UTC","SGP4","2023-03-07T21:29:06.501696","15.19381028","0.00113200","97.3615","127.5231","16.0654","98.1133","0","U","44804","999","18163","0.00041530000000","0.00008737","0.0000000000000","6885.847","94.775","515.507","499.917","PAYLOAD","LARGE","IND","2019-11-27","SRI",null,"3854072","227671348","0 CARTOSAT 3","1 44804U 19081A   23066.89521414  .00008737  00000-0  41530-3 0  9991","2 44804  97.3615 127.5231 0011320  16.0654  98.1133 15.19381028181635"
"2.0","GENERATED VIA SPACE-TRACK.ORG API","2023-03-08T06:26:13","18 SPCS","CARTOSAT 3","2019-081A","EARTH","TEME","UTC","SGP4","2023-03-08T05:06:41.680224","15.19389259","0.00112610","97.3612","127.8330","15.1311","36.0737","0","U","44804","999","18168","0.00043262000000","0.00009107","0.0000000000000","6885.822","94.775","515.441","499.933","PAYLOAD","LARGE","IND","2019-11-27","SRI",null,"3854081","227678453","0 CARTOSAT 3","1 44804U 19081A   23067.21298241  .00009107  00000-0  43262-3 0  9993","2 44804  97.3612 127.8330 0011261  15.1311  36.0737 15.19389259181689"
"2.0","GENERATED VIA SPACE-TRACK.ORG API","2023-03-08T14:26:12","18 SPCS","CARTOSAT 3","2019-081A","EARTH","TEME","UTC","SGP4","2023-03-08T09:55:44.282208","15.19393768","0.00112120","97.3612","128.0289","14.7860","53.6460","0","U","44804","999","18171","0.00043847000000","0.00009232","0.0000000000000","6885.809","94.775","515.394","499.953","PAYLOAD","LARGE","IND","2019-11-27","SRI",null,"3854401","227685178","0 CARTOSAT 3","1 44804U 19081A   23067.41370697  .00009232  00000-0  43847-3 0  9999","2 44804  97.3612 128.0289 0011212  14.7860  53.6460 15.19393768181717"
"2.0","GENERATED VIA SPACE-TRACK.ORG API","2023-03-08T22:26:12","18 SPCS","CARTOSAT 3","2019-081A","EARTH","TEME","UTC","SGP4","2023-03-08T15:02:43.213056","15.19398657","0.00110940","97.3610","128.2366","14.2121","139.5483","0","U","44804","999","18174","0.00044487000000","0.00009369","0.0000000000000","6885.794","94.774","515.298","500.020","PAYLOAD","LARGE","IND","2019-11-27","SRI",null,"3854791","227693521","0 CARTOSAT 3","1 44804U 19081A   23067.62688904  .00009369  00000-0  44487-3 0  9997","2 44804  97.3610 128.2366 0011094  14.2121 139.5483 15.19398657181740"
"2.0","GENERATED VIA SPACE-TRACK.ORG API","2023-03-09T02:49:33","18 SPCS","CARTOSAT 3","2019-081A","EARTH","TEME","UTC","SGP4","2023-03-08T21:04:24.943872","15.19403565","0.00110690","97.3611","128.4813","13.3641","73.4199","0","U","44804","999","18178","0.00044627000000","0.00009400","0.0000000000000","6885.779","94.774","515.266","500.022","PAYLOAD","LARGE","IND","2019-11-27","SRI",null,"3855077","227717865","0 CARTOSAT 3","1 44804U 19081A   23067.87806648  .00009400  00000-0  44627-3 0  9993","2 44804  97.3611 128.4813 0011069  13.3641  73.4199 15.19403565181788"
"2.0","GENERATED VIA SPACE-TRACK.ORG API","2023-03-09T06:26:12","18 SPCS","CARTOSAT 3","2019-081A","EARTH","TEME","UTC","SGP4","2023-03-09T01:49:16.228992","15.19407635","0.00110780","97.3611","128.6741","12.6893","75.4294","0","U","44804","999","18181","0.00044836000000","0.00009445","0.0000000000000","6885.767","94.774","515.260","500.004","PAYLOAD","LARGE","IND","2019-11-27","SRI",null,"3855110","227726677","0 CARTOSAT 3","1 44804U 19081A   23068.07588228  .00009445  00000-0  44836-3 0  9998","2 44804  97.3611 128.6741 0011078  12.6893  75.4294 15.19407635181815"
"2.0","GENERATED VIA SPACE-TRACK.ORG API","2023-03-09T22:06:13","18 SPCS","CARTOSAT 3","2019-081A","EARTH","TEME","UTC","SGP4","2023-03-09T19:17:39.954624","15.19422727","0.00109620","97.3608","129.3836","10.2114","97.7366","0","U","44804","999","18192","0.00045651000000","0.00009622","0.0000000000000","6885.721","94.773","515.134","500.038","PAYLOAD","LARGE","IND","2019-11-27","SRI",null,"3855450","227734272","0 CARTOSAT 3","1 44804U 19081A   23068.80393466  .00009622  00000-0  45651-3 0  9990","2 44804  97.3608 129.3836 0010962  10.2114  97.7366 15.19422727181923"
"2.0","GENERATED VIA SPACE-TRACK.ORG API","2023-03-10T03:15:38","18 SPCS","CARTOSAT 3","2019-081A","EARTH","TEME","UTC","SGP4","2023-03-09T19:17:39.954624","15.19422727","0.00109620","97.3608","129.3836","10.2114","97.7366","0","U","44804","999","18192","0.00045651000000","0.00009622","0.0000000000000","6885.721","94.773","515.134","500.038","PAYLOAD","LARGE","IND","2019-11-27","SRI",null,"3855951","227765350","0 CARTOSAT 3","1 44804U 19081A   23068.80393466  .00009622  00000-0  45651-3 0  9990","2 44804  97.3608 129.3836 0010962  10.2114  97.7366 15.19422727181923"
"2.0","GENERATED VIA SPACE-TRACK.ORG API","2023-03-10T06:26:13","18 SPCS","CARTOSAT 3","2019-081A","EARTH","TEME","UTC","SGP4","2023-03-09T22:44:28.465152","15.19425334","0.00109400","97.3608","129.5233","9.6602","163.3592","0","U","44804","999","18194","0.00045554000000","0.00009602","0.0000000000000","6885.713","94.773","515.111","500.045","PAYLOAD","LARGE","IND","2019-11-27","SRI",null,"3855981","227772449","0 CARTOSAT 3","1 44804U 19081A   23068.94755168  .00009602  00000-0  45554-3 0  9996","2 44804  97.3608 129.5233 0010940   9.6602 163.3592 15.19425334181946"
"2.0","GENERATED VIA SPACE-TRACK.ORG API","2023-03-10T11:06:12","18 SPCS","CARTOSAT 3","2019-081A","EARTH","TEME","UTC","SGP4","2023-03-10T09:28:38.863200","15.19252718","0.00120890","97.3623","129.9573","17.9902","80.0487","0","U","44804","999","18201","-0.00310330000000","-0.00064983","0.0000000000000","6886.235","94.783","516.425","499.775","PAYLOAD","LARGE","IND","2019-11-27","SRI",null,"3856330","227779765","0 CARTOSAT 3","1 44804U 19081A   23069.39489425 -.00064983  00000-0 -31033-2 0  9997","2 44804  97.3623 129.9573 0012089  17.9902  80.0487 15.19252718182016"
"2.0","GENERATED VIA SPACE-TRACK.ORG API","2023-03-10T22:16:12","18 SPCS","CARTOSAT 3","2019-081A","EARTH","TEME","UTC","SGP4","2023-03-10T12:40:58.560384","15.19201249","0.00128220","97.3635","130.0867","15.7059","92.2823","0","U","44804","999","18203","-0.00381100000000","-0.00079534","0.0000000000000","6886.390","94.787","517.085","499.426","PAYLOAD","LARGE","IND","2019-11-27","SRI",null,"3856682","227786976","0 CARTOSAT 3","1 44804U 19081A   23069.52845556 -.00079534  00000-0 -38110-2 0  9994","2 44804  97.3635 130.0867 0012822  15.7059  92.2823 15.19201249182036"
